{
"type": "FeatureCollection",
"name": "school_attendance_areas",
"crs": { "type": "name", "properties": { "name": "urn:ogc:def:crs:OGC:1.3:CRS84" } },
"features": [
{ "type": "Feature", "properties": { "sdorgid": 30001000000.0, "sdtype": "03", "sdnumber": "0001", "sdprefname": "Minneapolis Public School District", "elem_orgid": 30001103000.0, "elem_name": "Armatage", "elem_multi": "N", "midd_orgid": 30001300000.0, "midd_name": "Anthony", "midd_multi": "N", "high_orgid": 30001364000.0, "high_name": "Southwest", "high_multi": "N", "Shape_Leng": 6187.0316994300001, "Shape_Area": 2161435.0 }, "geometry": { "type": "Polygon", "coordinates": [ [ [ -93.304831414725939, 44.890693759120417 ], [ -93.318939612495569, 44.890808265049053 ], [ -93.318829361820548, 44.905211920940339 ], [ -93.316956002652617, 44.905460192091795 ], [ -93.313928312398616, 44.90541454297373 ], [ -93.312855243076584, 44.906083641818547 ], [ -93.311947993020382, 44.906968327564194 ], [ -93.31084900252111, 44.907538455350391 ], [ -93.309736596452225, 44.907973577742311 ], [ -93.308521578863619, 44.908174912542584 ], [ -93.306861940211689, 44.908143376048955 ], [ -93.305820286506105, 44.907597043656544 ], [ -93.305357559791418, 44.908723541627445 ], [ -93.303558752541079, 44.908728337503064 ], [ -93.303565617399926, 44.898015837756937 ], [ -93.303462872106991, 44.89774604801292 ], [ -93.303441575873336, 44.896107723225548 ], [ -93.303580889672332, 44.896107352965196 ], [ -93.30362765454403, 44.892965496005267 ], [ -93.303738879571256, 44.892443078310265 ], [ -93.304732533384296, 44.891153130364621 ], [ -93.304831414725939, 44.890693759120417 ] ] ] } },
{ "type": "Feature", "properties": { "sdorgid": 30001000000.0, "sdtype": "03", "sdnumber": "0001", "sdprefname": "Minneapolis Public School District", "elem_orgid": 30001104000.0, "elem_name": "Lake Harriet Lower & Lake Harriet Upper", "elem_multi": "Y", "midd_orgid": 30001300000.0, "midd_name": "Anthony", "midd_multi": "N", "high_orgid": 30001364000.0, "high_name": "Southwest", "high_multi": "N", "Shape_Leng": 10248.6529027, "Shape_Area": 5750981.5 }, "geometry": { "type": "Polygon", "coordinates": [ [ [ -93.312855243076584, 44.906083641818547 ], [ -93.313928312398616, 44.90541454297373 ], [ -93.316956002652617, 44.905460192091795 ], [ -93.318829361820548, 44.905211920940339 ], [ -93.328988954138822, 44.905318135163625 ], [ -93.329112959448338, 44.922583741471968 ], [ -93.328997242434184, 44.937806526121207 ], [ -93.310479467532176, 44.937669336671256 ], [ -93.310301838021616, 44.932934749457637 ], [ -93.309422368399339, 44.932000923997869 ], [ -93.3092804033314, 44.931524200486322 ], [ -93.308137405504951, 44.931068186560339 ], [ -93.308070957890081, 44.930492235186243 ], [ -93.307546480258168, 44.929575440627126 ], [ -93.307522149262539, 44.917908845700879 ], [ -93.308751010369463, 44.917887525582728 ], [ -93.308660776940215, 44.908147530151858 ], [ -93.309736596452225, 44.907973577742311 ], [ -93.31084900252111, 44.907538455350391 ], [ -93.311947993020382, 44.906968327564194 ], [ -93.312855243076584, 44.906083641818547 ] ] ] } },
{ "type": "Feature", "properties": { "sdorgid": 30001000000.0, "sdtype": "03", "sdnumber": "0001", "sdprefname": "Minneapolis Public School District", "elem_orgid": 30001105000.0, "elem_name": "Bancroft", "elem_multi": "N", "midd_orgid": 30001331000.0, "midd_name": "Andersen", "midd_multi": "N", "high_orgid": 30001362000.0, "high_name": "South", "high_multi": "N", "Shape_Leng": 7163.0950645599996, "Shape_Area": 2852138.5 }, "geometry": { "type": "Polygon", "coordinates": [ [ [ -93.247420776099815, 44.948373771531372 ], [ -93.247328499109983, 44.926931123507231 ], [ -93.262509382742707, 44.926942236415975 ], [ -93.262499826022321, 44.93595330466168 ], [ -93.262683242269318, 44.948357676468298 ], [ -93.247420776099815, 44.948373771531372 ] ] ] } },
{ "type": "Feature", "properties": { "sdorgid": 30001000000.0, "sdtype": "03", "sdnumber": "0001", "sdprefname": "Minneapolis Public School District", "elem_orgid": 30001110000.0, "elem_name": "Burroughs", "elem_multi": "N", "midd_orgid": 30001323000.0, "midd_name": "Justice Page", "midd_multi": "N", "high_orgid": 30001368000.0, "high_name": "Washburn", "high_multi": "N", "Shape_Leng": 8237.0308631499993, "Shape_Area": 3412182.5 }, "geometry": { "type": "Polygon", "coordinates": [ [ [ -93.274816991260479, 44.919666623076225 ], [ -93.274855460013711, 44.909152112537065 ], [ -93.277901919550459, 44.907803429453828 ], [ -93.278692736409695, 44.906307156658713 ], [ -93.280172515269371, 44.905835427341074 ], [ -93.285401111243715, 44.907793935277816 ], [ -93.288177630722984, 44.908255070384669 ], [ -93.292103435202577, 44.908020043854627 ], [ -93.294715385334285, 44.908490442885309 ], [ -93.296390337389525, 44.909035234555681 ], [ -93.298444609854059, 44.909434977654705 ], [ -93.298440970129761, 44.908732825185467 ], [ -93.305357559791418, 44.908723541627445 ], [ -93.305820286506105, 44.907597043656544 ], [ -93.306861940211689, 44.908143376048955 ], [ -93.308660776940215, 44.908147530151858 ], [ -93.308751010369463, 44.917887525582728 ], [ -93.307522149262539, 44.917908845700879 ], [ -93.30753133546925, 44.919628214549697 ], [ -93.298231049804969, 44.919562862266268 ], [ -93.274816991260479, 44.919666623076225 ] ] ] } },
{ "type": "Feature", "properties": { "sdorgid": 30001000000.0, "sdtype": "03", "sdnumber": "0001", "sdprefname": "Minneapolis Public School District", "elem_orgid": 30001123000.0, "elem_name": "Hale & Field", "elem_multi": "Y", "midd_orgid": 30001323000.0, "midd_name": "Justice Page", "midd_multi": "N", "high_orgid": 30001368000.0, "high_name": "Washburn", "high_multi": "N", "Shape_Leng": 10274.4229767, "Shape_Area": 5451100.5 }, "geometry": { "type": "Polygon", "coordinates": [ [ [ -93.269504158409887, 44.926925941349658 ], [ -93.252346554390485, 44.926938142229375 ], [ -93.252378807011667, 44.914074123895666 ], [ -93.249279733254582, 44.91518818781703 ], [ -93.247304061391986, 44.915354525525977 ], [ -93.247314167598716, 44.908864007051669 ], [ -93.247482742063852, 44.900932802716035 ], [ -93.24914197364447, 44.900929190674418 ], [ -93.25103238060106, 44.901654218082307 ], [ -93.251743930007791, 44.902165770915261 ], [ -93.252666157422752, 44.901614606539674 ], [ -93.266370798817022, 44.901556455386896 ], [ -93.266654874270913, 44.902726064130405 ], [ -93.267369543418127, 44.903876660390388 ], [ -93.269977349774265, 44.903546449696769 ], [ -93.271165843686106, 44.903084527217288 ], [ -93.27489205913048, 44.90355272888516 ], [ -93.274800836931121, 44.926895313046813 ], [ -93.273166190387002, 44.92689923530142 ], [ -93.272392663700302, 44.926784056526103 ], [ -93.27058057441981, 44.926779362874804 ], [ -93.269504158409887, 44.926925941349658 ] ] ] } },
{ "type": "Feature", "properties": { "sdorgid": 30001000000.0, "sdtype": "03", "sdnumber": "0001", "sdprefname": "Minneapolis Public School District", "elem_orgid": 30001130000.0, "elem_name": "Hiawatha & Howe", "elem_multi": "Y", "midd_orgid": 30001324000.0, "midd_name": "Sanford", "midd_multi": "N", "high_orgid": 30001360000.0, "high_name": "Roosevelt", "high_multi": "N", "Shape_Leng": 13352.7732648, "Shape_Area": 5963170.5 }, "geometry": { "type": "Polygon", "coordinates": [ [ [ -93.199910882945588, 44.926934070277355 ], [ -93.199945110464739, 44.925844762050211 ], [ -93.20101040382157, 44.918848290347768 ], [ -93.200834667036688, 44.91206104015302 ], [ -93.200675770058027, 44.910089865317381 ], [ -93.200471420538477, 44.909613114631902 ], [ -93.19996251687401, 44.908983862653621 ], [ -93.199352533335528, 44.908426801731451 ], [ -93.197042409138604, 44.90708050479796 ], [ -93.193717700098347, 44.905339797288512 ], [ -93.196935340409809, 44.905406302292242 ], [ -93.198751591091906, 44.90681647820778 ], [ -93.200807640094396, 44.907947138399521 ], [ -93.204307794191763, 44.909048177030328 ], [ -93.205397217605423, 44.909046220042811 ], [ -93.2078100652366, 44.910698231040001 ], [ -93.212321349847016, 44.91451580258736 ], [ -93.214861116644229, 44.916113414355756 ], [ -93.215775903479553, 44.916804846481611 ], [ -93.217530103565039, 44.918340867403408 ], [ -93.220126927825348, 44.921522614973981 ], [ -93.222586225099889, 44.925109662716061 ], [ -93.224843147792484, 44.928715058529797 ], [ -93.23351160192567, 44.941372512171341 ], [ -93.234556593943651, 44.942756680418718 ], [ -93.235832305893553, 44.944752499649567 ], [ -93.232042350803098, 44.944769274390872 ], [ -93.231510775036782, 44.944968399041315 ], [ -93.207617489447088, 44.945086410174916 ], [ -93.207642066927733, 44.934346942899595 ], [ -93.208364444106209, 44.93434562540525 ], [ -93.208325316415724, 44.927045038464193 ], [ -93.202711763041009, 44.927055154683828 ], [ -93.199910882945588, 44.926934070277355 ] ] ] } },
{ "type": "Feature", "properties": { "sdorgid": 30001000000.0, "sdtype": "03", "sdnumber": "0001", "sdprefname": "Minneapolis Public School District", "elem_orgid": 30001135000.0, "elem_name": "Kenny", "elem_multi": "N", "midd_orgid": 30001300000.0, "midd_name": "Anthony", "midd_multi": "N", "high_orgid": 30001364000.0, "high_name": "Southwest", "high_multi": "N", "Shape_Leng": 6634.1339436099997, "Shape_Area": 2428252.5 }, "geometry": { "type": "Polygon", "coordinates": [ [ [ -93.296390337389525, 44.909035234555681 ], [ -93.294715385334285, 44.908490442885309 ], [ -93.292103435202577, 44.908020043854627 ], [ -93.288177630722984, 44.908255070384669 ], [ -93.288301105960997, 44.905086026096988 ], [ -93.288329329899511, 44.890484556201635 ], [ -93.294369854815486, 44.890460143476531 ], [ -93.304831414725939, 44.890693759120417 ], [ -93.304732533384296, 44.891153130364621 ], [ -93.303738879571256, 44.892443078310265 ], [ -93.30362765454403, 44.892965496005267 ], [ -93.303580889672332, 44.896107352965196 ], [ -93.303441575873336, 44.896107723225548 ], [ -93.303462872106991, 44.89774604801292 ], [ -93.303565617399926, 44.898015837756937 ], [ -93.303558752541079, 44.908728337503064 ], [ -93.298440970129761, 44.908732825185467 ], [ -93.298444609854059, 44.909434977654705 ], [ -93.296390337389525, 44.909035234555681 ] ] ] } },
{ "type": "Feature", "properties": { "sdorgid": 30001000000.0, "sdtype": "03", "sdnumber": "0001", "sdprefname": "Minneapolis Public School District", "elem_orgid": 30001136000.0, "elem_name": "Kenwood", "elem_multi": "N", "midd_orgid": 30001309000.0, "midd_name": "Anwatin", "midd_multi": "N", "high_orgid": 30001375000.0, "high_name": "North", "high_multi": "N", "Shape_Leng": 18022.816329699999, "Shape_Area": 11850128.5 }, "geometry": { "type": "Polygon", "coordinates": [ [ [ -93.269545093276747, 44.962690880402384 ], [ -93.291379567157151, 44.962700258412525 ], [ -93.296769632818297, 44.955565795096142 ], [ -93.298223368727008, 44.952303281139912 ], [ -93.29829165124049, 44.948360221698842 ], [ -93.288099755054674, 44.948368389005246 ], [ -93.288211074219177, 44.937700709745712 ], [ -93.30400328682353, 44.937731772649357 ], [ -93.310479467532176, 44.937669336671256 ], [ -93.328997242434184, 44.937806526121207 ], [ -93.328803528178014, 44.959348898649218 ], [ -93.320967455443068, 44.959263171727862 ], [ -93.320879059875651, 44.966140940752751 ], [ -93.318166382888421, 44.966310567994206 ], [ -93.30054917117242, 44.970391190638189 ], [ -93.29066065345441, 44.975989016542897 ], [ -93.281173731914194, 44.975922755427007 ], [ -93.280463910401963, 44.976005519135086 ], [ -93.278641216407294, 44.976748143930422 ], [ -93.277530518409179, 44.975238517942202 ], [ -93.276183077201054, 44.97459364334032 ], [ -93.269181278110409, 44.971639714112122 ], [ -93.269323873557525, 44.969595927941306 ], [ -93.269644917614087, 44.967749763246736 ], [ -93.269545093276747, 44.962690880402384 ] ] ] } },
{ "type": "Feature", "properties": { "sdorgid": 30001000000.0, "sdtype": "03", "sdnumber": "0001", "sdprefname": "Minneapolis Public School District", "elem_orgid": 30001140000.0, "elem_name": "Loring", "elem_multi": "N", "midd_orgid": 30001318000.0, "midd_name": "Olson", "midd_multi": "N", "high_orgid": 30001354000.0, "high_name": "Camden", "high_multi": "N", "Shape_Leng": 10549.0166823, "Shape_Area": 4092415.5 }, "geometry": { "type": "Polygon", "coordinates": [ [ [ -93.31936146024519, 45.042175381471722 ], [ -93.299073240715444, 45.037675395332563 ], [ -93.298925505387686, 45.031248453064855 ], [ -93.298493981400455, 45.031267585898334 ], [ -93.297733750180797, 45.031548628967279 ], [ -93.287069877409948, 45.031512929355266 ], [ -93.285763084241935, 45.031669239690316 ], [ -93.283315841670642, 45.032251458744724 ], [ -93.282507382280997, 45.030489096448001 ], [ -93.280000078097501, 45.02656145606943 ], [ -93.278552904037525, 45.023927446703716 ], [ -93.319197557058118, 45.024118101191306 ], [ -93.31931245087921, 45.040213115031605 ], [ -93.323134732293866, 45.040310382619523 ], [ -93.32319991530494, 45.042866723627753 ], [ -93.319360508493375, 45.04200434899122 ], [ -93.31936146024519, 45.042175381471722 ] ] ] } },
{ "type": "Feature", "properties": { "sdorgid": 30001000000.0, "sdtype": "03", "sdnumber": "0001", "sdprefname": "Minneapolis Public School District", "elem_orgid": 30001144000.0, "elem_name": "Lyndale", "elem_multi": "N", "midd_orgid": 30001323000.0, "midd_name": "Justice Page", "midd_multi": "N", "high_orgid": 30001368000.0, "high_name": "Washburn", "high_multi": "N", "Shape_Leng": 6394.1354960199997, "Shape_Area": 2379278.5 }, "geometry": { "type": "Polygon", "coordinates": [ [ [ -93.262683242269318, 44.948357676468298 ], [ -93.262520761312416, 44.937762665702429 ], [ -93.288211074219177, 44.937700709745712 ], [ -93.288099755054674, 44.948368389005246 ], [ -93.262683242269318, 44.948357676468298 ] ] ] } },
{ "type": "Feature", "properties": { "sdorgid": 30001000000.0, "sdtype": "03", "sdnumber": "0001", "sdprefname": "Minneapolis Public School District", "elem_orgid": 30001151000.0, "elem_name": "Jenny Lind", "elem_multi": "N", "midd_orgid": 30001318000.0, "midd_name": "Olson", "midd_multi": "N", "high_orgid": 30001354000.0, "high_name": "Camden", "high_multi": "N", "Shape_Leng": 9738.9048858099995, "Shape_Area": 4941231.5 }, "geometry": { "type": "Polygon", "coordinates": [ [ [ -93.283315841670642, 45.032251458744724 ], [ -93.285763084241935, 45.031669239690316 ], [ -93.287069877409948, 45.031512929355266 ], [ -93.297733750180797, 45.031548628967279 ], [ -93.298493981400455, 45.031267585898334 ], [ -93.298925505387686, 45.031248453064855 ], [ -93.299073240715444, 45.037675395332563 ], [ -93.31936146024519, 45.042175381471722 ], [ -93.319500958878436, 45.051266851900074 ], [ -93.286406066309297, 45.051129629469052 ], [ -93.28196153164572, 45.051167698909076 ], [ -93.281109896946774, 45.048415236929564 ], [ -93.280711811826919, 45.044914499829936 ], [ -93.280929440831144, 45.042681506470061 ], [ -93.282543268336127, 45.037780515939595 ], [ -93.283191873577906, 45.035429423821782 ], [ -93.283455680246604, 45.034861651890296 ], [ -93.283499348924892, 45.033421245518795 ], [ -93.283315841670642, 45.032251458744724 ] ] ] } },
{ "type": "Feature", "properties": { "sdorgid": 30001000000.0, "sdtype": "03", "sdnumber": "0001", "sdprefname": "Minneapolis Public School District", "elem_orgid": 30001152000.0, "elem_name": "Northrop", "elem_multi": "N", "midd_orgid": 30001324000.0, "midd_name": "Sanford", "midd_multi": "N", "high_orgid": 30001360000.0, "high_name": "Roosevelt", "high_multi": "N", "Shape_Leng": 9349.8320860099993, "Shape_Area": 4043479.0 }, "geometry": { "type": "Polygon", "coordinates": [ [ [ -93.224843147792484, 44.928715058529797 ], [ -93.222586225099889, 44.925109662716061 ], [ -93.220126927825348, 44.921522614973981 ], [ -93.217530103565039, 44.918340867403408 ], [ -93.218822623442989, 44.918392407227572 ], [ -93.221026988505329, 44.918343146249079 ], [ -93.221495145195902, 44.91818020085887 ], [ -93.221747671832574, 44.917954658528807 ], [ -93.22214997206261, 44.917143689690036 ], [ -93.223276892037575, 44.916970449865509 ], [ -93.224050709785601, 44.917220990256517 ], [ -93.224760307150532, 44.917246600303315 ], [ -93.225419615143693, 44.917371328077763 ], [ -93.225610893828005, 44.917686022194729 ], [ -93.225525277219432, 44.91846937121521 ], [ -93.225830765433329, 44.918828849339093 ], [ -93.226453076574359, 44.919205702154862 ], [ -93.226820824099889, 44.919285989991529 ], [ -93.227707756196637, 44.919293224796149 ], [ -93.228479657699779, 44.919048625411698 ], [ -93.228871421544696, 44.918795782160828 ], [ -93.229135515891016, 44.918300138349387 ], [ -93.229755469729668, 44.918082841644662 ], [ -93.230831742435839, 44.917918631375848 ], [ -93.231516917745324, 44.918169300505703 ], [ -93.232898643898096, 44.918346528835052 ], [ -93.233418833724741, 44.918525506781975 ], [ -93.234105053336236, 44.919028216029616 ], [ -93.234472626826218, 44.919063469267421 ], [ -93.236432760024499, 44.918159216552112 ], [ -93.238394734183174, 44.917714031598791 ], [ -93.239558574701221, 44.91728849607297 ], [ -93.239837191069071, 44.917260904377216 ], [ -93.240534690669278, 44.917421472855693 ], [ -93.241117564358774, 44.917438246360923 ], [ -93.241560430868162, 44.917302278334795 ], [ -93.242202936700139, 44.91643671733928 ], [ -93.242189282007743, 44.916202692542569 ], [ -93.244188502429949, 44.915604293597397 ], [ -93.249279733254582, 44.91518818781703 ], [ -93.252378807011667, 44.914074123895666 ], [ -93.252346554390485, 44.926938142229375 ], [ -93.247328499109983, 44.926931123507231 ], [ -93.247346728370886, 44.934114717155083 ], [ -93.228539575498516, 44.934126942683527 ], [ -93.224843147792484, 44.928715058529797 ] ] ] } },
{ "type": "Feature", "properties": { "sdorgid": 30001000000.0, "sdtype": "03", "sdnumber": "0001", "sdprefname": "Minneapolis Public School District", "elem_orgid": 30001155000.0, "elem_name": "Pillsbury", "elem_multi": "N", "midd_orgid": 30001316000.0, "midd_name": "Northeast", "midd_multi": "N", "high_orgid": 30001352000.0, "high_name": "Edison", "high_multi": "N", "Shape_Leng": 21581.5580262, "Shape_Area": 16214997.5 }, "geometry": { "type": "Polygon", "coordinates": [ [ [ -93.226622644069295, 45.016858876602868 ], [ -93.226595567671467, 45.013213164337039 ], [ -93.218181850801244, 45.01328357782198 ], [ -93.217890886857631, 45.013527185085216 ], [ -93.217811651950214, 45.006019752196444 ], [ -93.207635315854972, 45.006128748552129 ], [ -93.207557327539277, 44.991581774151832 ], [ -93.207686981826043, 44.974828887104792 ], [ -93.215505948852311, 44.976605774831143 ], [ -93.222405260077124, 44.979860246485906 ], [ -93.230883205814706, 44.984362388183506 ], [ -93.230820110157538, 44.984443533516384 ], [ -93.234837305899646, 44.98662281054812 ], [ -93.238270461369368, 44.988605123847478 ], [ -93.240815063619891, 44.990400171421193 ], [ -93.241986773101516, 44.991495930067487 ], [ -93.247295173244098, 44.998695104385462 ], [ -93.270006054411212, 44.998706656554575 ], [ -93.275145647352559, 44.998937436938697 ], [ -93.275425204989048, 44.999026782165537 ], [ -93.274562328469273, 45.00431298593967 ], [ -93.274430490966552, 45.005933646371048 ], [ -93.274896503104685, 45.013161051582834 ], [ -93.275270700750269, 45.014447420757605 ], [ -93.275629632358459, 45.015193711781841 ], [ -93.276825566995214, 45.018440500076437 ], [ -93.278552904037525, 45.023927446703716 ], [ -93.280000078097501, 45.02656145606943 ], [ -93.281816445090726, 45.029383574345651 ], [ -93.279785366152282, 45.02938857024823 ], [ -93.278623243966962, 45.027960115062761 ], [ -93.278177604390947, 45.027682143814609 ], [ -93.277682064579466, 45.027584329654843 ], [ -93.26392179682739, 45.027589965822976 ], [ -93.262673783226063, 45.02116550381345 ], [ -93.262733992052574, 45.020454216490904 ], [ -93.26290884068969, 45.019832683929302 ], [ -93.26066117202204, 45.01678619863457 ], [ -93.226622644069295, 45.016858876602868 ] ] ] } },
{ "type": "Feature", "properties": { "sdorgid": 30001000000.0, "sdtype": "03", "sdnumber": "0001", "sdprefname": "Minneapolis Public School District", "elem_orgid": 30001156000.0, "elem_name": "Pratt", "elem_multi": "N", "midd_orgid": 30001316000.0, "midd_name": "Northeast", "midd_multi": "N", "high_orgid": 30001352000.0, "high_name": "Edison", "high_multi": "N", "Shape_Leng": 13040.3531836, "Shape_Area": 6908814.5 }, "geometry": { "type": "Polygon", "coordinates": [ [ [ -93.207686981826043, 44.974828887104792 ], [ -93.207760505083243, 44.953088941795201 ], [ -93.218512404756495, 44.960117419141483 ], [ -93.22564874653871, 44.966071847040581 ], [ -93.228509758167178, 44.964877888776321 ], [ -93.236165884355088, 44.964232155471805 ], [ -93.243736822373336, 44.96446828620082 ], [ -93.24957759279755, 44.966301065763993 ], [ -93.253660189620859, 44.966184043345983 ], [ -93.258794100929364, 44.965812441712089 ], [ -93.256829990799005, 44.966113942690313 ], [ -93.255259792106102, 44.966603571621128 ], [ -93.254285790904106, 44.967145864506165 ], [ -93.253768315083832, 44.967696137185555 ], [ -93.252991711309747, 44.969876341375716 ], [ -93.2523873686645, 44.970867897188633 ], [ -93.251378613408022, 44.972184412146383 ], [ -93.250342995897213, 44.973167903596988 ], [ -93.246424421408818, 44.976156089077897 ], [ -93.245844612837587, 44.976994523596126 ], [ -93.245129619980986, 44.978850468314825 ], [ -93.243835156411151, 44.981652854435694 ], [ -93.241830245456271, 44.98445673269898 ], [ -93.240441269391937, 44.985962995923899 ], [ -93.237062612039921, 44.987941495532816 ], [ -93.234837305899646, 44.98662281054812 ], [ -93.230820110157538, 44.984443533516384 ], [ -93.230883205814706, 44.984362388183506 ], [ -93.222405260077124, 44.979860246485906 ], [ -93.215505948852311, 44.976605774831143 ], [ -93.207686981826043, 44.974828887104792 ] ] ] } },
{ "type": "Feature", "properties": { "sdorgid": 30001000000.0, "sdtype": "03", "sdnumber": "0001", "sdprefname": "Minneapolis Public School District", "elem_orgid": 30001165000.0, "elem_name": "Waite Park", "elem_multi": "N", "midd_orgid": 30001316000.0, "midd_name": "Northeast", "midd_multi": "N", "high_orgid": 30001352000.0, "high_name": "Edison", "high_multi": "N", "Shape_Leng": 12668.5523302, "Shape_Area": 7231850.0 }, "geometry": { "type": "Polygon", "coordinates": [ [ [ -93.226622644069295, 45.016858876602868 ], [ -93.26066117202204, 45.01678619863457 ], [ -93.26290884068969, 45.019832683929302 ], [ -93.262733992052574, 45.020454216490904 ], [ -93.262673783226063, 45.02116550381345 ], [ -93.26392179682739, 45.027589965822976 ], [ -93.277682064579466, 45.027584329654843 ], [ -93.278177604390947, 45.027682143814609 ], [ -93.278623243966962, 45.027960115062761 ], [ -93.279785366152282, 45.02938857024823 ], [ -93.281816445090726, 45.029383574345651 ], [ -93.282507382280997, 45.030489096448001 ], [ -93.283315841670642, 45.032251458744724 ], [ -93.283499348924892, 45.033421245518795 ], [ -93.283503261077527, 45.034213399712819 ], [ -93.283455680246604, 45.034861651890296 ], [ -93.283191873577906, 45.035429423821782 ], [ -93.267716244173499, 45.035529778086698 ], [ -93.247250627290924, 45.035512929390599 ], [ -93.22691260839342, 45.035636208907292 ], [ -93.226848960529281, 45.019531987088342 ], [ -93.226580047207818, 45.018929395215721 ], [ -93.226622644069295, 45.016858876602868 ] ] ] } },
{ "type": "Feature", "properties": { "sdorgid": 30001000000.0, "sdtype": "03", "sdnumber": "0001", "sdprefname": "Minneapolis Public School District", "elem_orgid": 30001167000.0, "elem_name": "Wenonah & Keewaydin", "elem_multi": "Y", "midd_orgid": 30001324000.0, "midd_name": "Sanford", "midd_multi": "N", "high_orgid": 30001360000.0, "high_name": "Roosevelt", "high_multi": "N", "Shape_Leng": 14958.8687278, "Shape_Area": 7411187.5 }, "geometry": { "type": "Polygon", "coordinates": [ [ [ -93.225525277219432, 44.91846937121521 ], [ -93.225610893828005, 44.917686022194729 ], [ -93.225419615143693, 44.917371328077763 ], [ -93.224760307150532, 44.917246600303315 ], [ -93.224050709785601, 44.917220990256517 ], [ -93.223276892037575, 44.916970449865509 ], [ -93.22214997206261, 44.917143689690036 ], [ -93.221747671832574, 44.917954658528807 ], [ -93.221495145195902, 44.91818020085887 ], [ -93.221026988505329, 44.918343146249079 ], [ -93.218822623442989, 44.918392407227572 ], [ -93.217530103565039, 44.918340867403408 ], [ -93.215775903479553, 44.916804846481611 ], [ -93.214861116644229, 44.916113414355756 ], [ -93.212321349847016, 44.91451580258736 ], [ -93.2078100652366, 44.910698231040001 ], [ -93.205397217605423, 44.909046220042811 ], [ -93.204307794191763, 44.909048177030328 ], [ -93.200807640094396, 44.907947138399521 ], [ -93.198751591091906, 44.90681647820778 ], [ -93.196935340409809, 44.905406302292242 ], [ -93.207588246512344, 44.905396409508313 ], [ -93.207682267546318, 44.896349135829581 ], [ -93.212900212385321, 44.896339513787005 ], [ -93.212911578774964, 44.895988410680054 ], [ -93.210885205099459, 44.895992175892012 ], [ -93.210913700784758, 44.893399517843115 ], [ -93.216118712978172, 44.893389772599505 ], [ -93.216968541494495, 44.893739241006401 ], [ -93.216959066157656, 44.894585456711823 ], [ -93.217275679209635, 44.894584853941161 ], [ -93.217266649974619, 44.89554809600898 ], [ -93.217064014232562, 44.895548481872915 ], [ -93.217065677498709, 44.895989581628292 ], [ -93.219054055772702, 44.895985779738673 ], [ -93.219062849612669, 44.894968525438642 ], [ -93.22037996842019, 44.894965987865824 ], [ -93.22248643245814, 44.896033147984681 ], [ -93.222502333219111, 44.896870312221715 ], [ -93.221349816319758, 44.896872554910836 ], [ -93.221096965371757, 44.896990072662682 ], [ -93.21976713527603, 44.896992642988764 ], [ -93.219526053039388, 44.896876080017151 ], [ -93.219044782117862, 44.896877005396732 ], [ -93.219035953540782, 44.897885257323921 ], [ -93.231776276903702, 44.897635025236454 ], [ -93.231758900068542, 44.896464787687314 ], [ -93.232404811108708, 44.896463473364896 ], [ -93.23240328470186, 44.896085388267906 ], [ -93.231795372421786, 44.896086625363132 ], [ -93.231805572327872, 44.895474461769723 ], [ -93.232413478144352, 44.895473224631779 ], [ -93.232424834422858, 44.895149125828979 ], [ -93.234957760641223, 44.895143936031452 ], [ -93.234948990427668, 44.896098176835231 ], [ -93.237494585632305, 44.896083902584351 ], [ -93.237486637297039, 44.897227185802507 ], [ -93.238121939650682, 44.897720976651854 ], [ -93.238729868910326, 44.897719705848353 ], [ -93.238731138273408, 44.898025774519077 ], [ -93.239364401242284, 44.898024447311002 ], [ -93.239373697377573, 44.897214238955428 ], [ -93.240639038778383, 44.896932511321111 ], [ -93.240630851785042, 44.898003778323961 ], [ -93.242517974317451, 44.897999781494853 ], [ -93.242529084512739, 44.897630671849832 ], [ -93.243162342958684, 44.897629323590365 ], [ -93.243173867271111, 44.897359236062911 ], [ -93.243781754361592, 44.897348936356984 ], [ -93.243780420057149, 44.897033865739438 ], [ -93.244438963726395, 44.897023454255866 ], [ -93.244439728242384, 44.897203494602877 ], [ -93.245123642190379, 44.897202026898633 ], [ -93.245122798870767, 44.897003982526122 ], [ -93.247351843706042, 44.896999170501125 ], [ -93.247482742063852, 44.900932802716035 ], [ -93.247314167598716, 44.908864007051669 ], [ -93.247304061391986, 44.915354525525977 ], [ -93.244188502429949, 44.915604293597397 ], [ -93.242189282007743, 44.916202692542569 ], [ -93.242202936700139, 44.91643671733928 ], [ -93.241560430868162, 44.917302278334795 ], [ -93.241117564358774, 44.917438246360923 ], [ -93.240534690669278, 44.917421472855693 ], [ -93.239837191069071, 44.917260904377216 ], [ -93.239558574701221, 44.91728849607297 ], [ -93.238394734183174, 44.917714031598791 ], [ -93.236432760024499, 44.918159216552112 ], [ -93.234472626826218, 44.919063469267421 ], [ -93.234105053336236, 44.919028216029616 ], [ -93.233418833724741, 44.918525506781975 ], [ -93.232898643898096, 44.918346528835052 ], [ -93.231516917745324, 44.918169300505703 ], [ -93.230831742435839, 44.917918631375848 ], [ -93.229755469729668, 44.918082841644662 ], [ -93.229135515891016, 44.918300138349387 ], [ -93.228871421544696, 44.918795782160828 ], [ -93.228479657699779, 44.919048625411698 ], [ -93.227707756196637, 44.919293224796149 ], [ -93.226820824099889, 44.919285989991529 ], [ -93.226453076574359, 44.919205702154862 ], [ -93.225830765433329, 44.918828849339093 ], [ -93.225525277219432, 44.91846937121521 ] ] ] } },
{ "type": "Feature", "properties": { "sdorgid": 30001000000.0, "sdtype": "03", "sdnumber": "0001", "sdprefname": "Minneapolis Public School District", "elem_orgid": 30001170000.0, "elem_name": "Windom", "elem_multi": "N", "midd_orgid": 30001300000.0, "midd_name": "Anthony", "midd_multi": "N", "high_orgid": 30001364000.0, "high_name": "Southwest", "high_multi": "N", "Shape_Leng": 11163.2128543, "Shape_Area": 4317140.5 }, "geometry": { "type": "Polygon", "coordinates": [ [ [ -93.247482742063852, 44.900932802716035 ], [ -93.247367023164927, 44.897584274023743 ], [ -93.248240957607877, 44.897591377500433 ], [ -93.248242471633986, 44.897942456041875 ], [ -93.254613124791859, 44.897928425310631 ], [ -93.254659764094683, 44.897019109363384 ], [ -93.255381637301312, 44.897008495208233 ], [ -93.255425867463487, 44.895559058131767 ], [ -93.254703972548697, 44.895560670506811 ], [ -93.254736589828113, 44.89434531391597 ], [ -93.254078032830364, 44.894346781024929 ], [ -93.254072073961751, 44.892996478595883 ], [ -93.252843640443146, 44.892999205027948 ], [ -93.252846540129227, 44.89077567805672 ], [ -93.274969269338371, 44.890544512005818 ], [ -93.288329329899511, 44.890484556201635 ], [ -93.288301105960997, 44.905086026096988 ], [ -93.288177630722984, 44.908255070384669 ], [ -93.285401111243715, 44.907793935277816 ], [ -93.280172515269371, 44.905835427341074 ], [ -93.278692736409695, 44.906307156658713 ], [ -93.277901919550459, 44.907803429453828 ], [ -93.274855460013711, 44.909152112537065 ], [ -93.27489205913048, 44.90355272888516 ], [ -93.271165843686106, 44.903084527217288 ], [ -93.269977349774265, 44.903546449696769 ], [ -93.267369543418127, 44.903876660390388 ], [ -93.266654874270913, 44.902726064130405 ], [ -93.266370798817022, 44.901556455386896 ], [ -93.252666157422752, 44.901614606539674 ], [ -93.251743930007791, 44.902165770915261 ], [ -93.25103238060106, 44.901654218082307 ], [ -93.24914197364447, 44.900929190674418 ], [ -93.247482742063852, 44.900932802716035 ] ] ] } },
{ "type": "Feature", "properties": { "sdorgid": 30001000000.0, "sdtype": "03", "sdnumber": "0001", "sdprefname": "Minneapolis Public School District", "elem_orgid": 30001180000.0, "elem_name": "Dowling", "elem_multi": "N", "midd_orgid": 30001331000.0, "midd_name": "Andersen", "midd_multi": "N", "high_orgid": 30001362000.0, "high_name": "South", "high_multi": "N", "Shape_Leng": 14766.756345, "Shape_Area": 6713010.5 }, "geometry": { "type": "Polygon", "coordinates": [ [ [ -93.243736822373336, 44.96446828620082 ], [ -93.236165884355088, 44.964232155471805 ], [ -93.228509758167178, 44.964877888776321 ], [ -93.22564874653871, 44.966071847040581 ], [ -93.218512404756495, 44.960117419141483 ], [ -93.207760505083243, 44.953088941795201 ], [ -93.205133000916561, 44.952175492864029 ], [ -93.204408734030508, 44.951708688668063 ], [ -93.203213168804425, 44.950603577677313 ], [ -93.202104739454171, 44.949030194788108 ], [ -93.201734307290053, 44.948229671185054 ], [ -93.200914679746759, 44.945845583082871 ], [ -93.200669343840858, 44.944558725928069 ], [ -93.200525860822125, 44.943397717258563 ], [ -93.200481428763723, 44.941561382072905 ], [ -93.200585997805092, 44.935205763272968 ], [ -93.200382089347954, 44.931245223868316 ], [ -93.199910882945588, 44.926934070277355 ], [ -93.202711763041009, 44.927055154683828 ], [ -93.208325316415724, 44.927045038464193 ], [ -93.208364444106209, 44.93434562540525 ], [ -93.207642066927733, 44.934346942899595 ], [ -93.207617489447088, 44.945086410174916 ], [ -93.231510775036782, 44.944968399041315 ], [ -93.232042350803098, 44.944769274390872 ], [ -93.235832305893553, 44.944752499649567 ], [ -93.238090909020926, 44.948375622154622 ], [ -93.241326996763462, 44.952248690363213 ], [ -93.243077941677029, 44.955593720254484 ], [ -93.250084805063594, 44.966299955133465 ], [ -93.24957759279755, 44.966301065763993 ], [ -93.243736822373336, 44.96446828620082 ] ] ] } },
{ "type": "Feature", "properties": { "sdorgid": 30001000000.0, "sdtype": "03", "sdnumber": "0001", "sdprefname": "Minneapolis Public School District", "elem_orgid": 30001215000.0, "elem_name": "Webster", "elem_multi": "N", "midd_orgid": 30001316000.0, "midd_name": "Northeast", "midd_multi": "N", "high_orgid": 30001352000.0, "high_name": "Edison", "high_multi": "N", "Shape_Leng": 14432.2123744, "Shape_Area": 10757254.5 }, "geometry": { "type": "Polygon", "coordinates": [ [ [ -93.275425204989048, 44.999026782165537 ], [ -93.275145647352559, 44.998937436938697 ], [ -93.270006054411212, 44.998706656554575 ], [ -93.247295173244098, 44.998695104385462 ], [ -93.241986773101516, 44.991495930067487 ], [ -93.240815063619891, 44.990400171421193 ], [ -93.238270461369368, 44.988605123847478 ], [ -93.237062612039921, 44.987941495532816 ], [ -93.240441269391937, 44.985962995923899 ], [ -93.241830245456271, 44.98445673269898 ], [ -93.243835156411151, 44.981652854435694 ], [ -93.245129619980986, 44.978850468314825 ], [ -93.245844612837587, 44.976994523596126 ], [ -93.246424421408818, 44.976156089077897 ], [ -93.250342995897213, 44.973167903596988 ], [ -93.251378613408022, 44.972184412146383 ], [ -93.2523873686645, 44.970867897188633 ], [ -93.252991711309747, 44.969876341375716 ], [ -93.253768315083832, 44.967696137185555 ], [ -93.254285790904106, 44.967145864506165 ], [ -93.255259792106102, 44.966603571621128 ], [ -93.256829990799005, 44.966113942690313 ], [ -93.258794100929364, 44.965812441712089 ], [ -93.262496773489346, 44.965812990559073 ], [ -93.262575787946048, 44.960906722232735 ], [ -93.269549367646817, 44.960899473158598 ], [ -93.269644917614087, 44.967749763246736 ], [ -93.269323873557525, 44.969595927941306 ], [ -93.269181278110409, 44.971639714112122 ], [ -93.276183077201054, 44.97459364334032 ], [ -93.277530518409179, 44.975238517942202 ], [ -93.278641216407294, 44.976748143930422 ], [ -93.280463910401963, 44.976005519135086 ], [ -93.281173731914194, 44.975922755427007 ], [ -93.287984565108545, 44.975977794268559 ], [ -93.288140394713608, 44.984286215087607 ], [ -93.287848611075589, 44.984277949185568 ], [ -93.288598054625396, 44.987012651932183 ], [ -93.2884910829939, 44.988444232873434 ], [ -93.287749785392151, 44.989868411997143 ], [ -93.284415929643174, 44.992928426679676 ], [ -93.283597420813706, 44.994163729332904 ], [ -93.283360866807257, 44.995073512958506 ], [ -93.283000419880267, 44.999161287328512 ], [ -93.278623121107358, 44.999154050909759 ], [ -93.275425204989048, 44.999026782165537 ] ] ] } },
{ "type": "Feature", "properties": { "sdorgid": 30001000000.0, "sdtype": "03", "sdnumber": "0001", "sdprefname": "Minneapolis Public School District", "elem_orgid": 30001217000.0, "elem_name": "Barton", "elem_multi": "N", "midd_orgid": 30001323000.0, "midd_name": "Justice Page", "midd_multi": "N", "high_orgid": 30001368000.0, "high_name": "Washburn", "high_multi": "N", "Shape_Leng": 11431.8537213, "Shape_Area": 6519963.5 }, "geometry": { "type": "Polygon", "coordinates": [ [ [ -93.30400328682353, 44.937731772649357 ], [ -93.262520761312416, 44.937762665702429 ], [ -93.262509382742707, 44.926942236415975 ], [ -93.269504158409887, 44.926925941349658 ], [ -93.27058057441981, 44.926779362874804 ], [ -93.272392663700302, 44.926784056526103 ], [ -93.273166190387002, 44.92689923530142 ], [ -93.274800836931121, 44.926895313046813 ], [ -93.274816991260479, 44.919666623076225 ], [ -93.298231049804969, 44.919562862266268 ], [ -93.30753133546925, 44.919628214549697 ], [ -93.307546480258168, 44.929575440627126 ], [ -93.308070957890081, 44.930492235186243 ], [ -93.308137405504951, 44.931068186560339 ], [ -93.3092804033314, 44.931524200486322 ], [ -93.309422368399339, 44.932000923997869 ], [ -93.310301838021616, 44.932934749457637 ], [ -93.310479467532176, 44.937669336671256 ], [ -93.30400328682353, 44.937731772649357 ] ] ] } },
{ "type": "Feature", "properties": { "sdorgid": 30001000000.0, "sdtype": "03", "sdnumber": "0001", "sdprefname": "Minneapolis Public School District", "elem_orgid": 30001222000.0, "elem_name": "Folwell", "elem_multi": "N", "midd_orgid": 30001331000.0, "midd_name": "Andersen", "midd_multi": "N", "high_orgid": 30001362000.0, "high_name": "South", "high_multi": "N", "Shape_Leng": 11154.072350599999, "Shape_Area": 4591248.5 }, "geometry": { "type": "Polygon", "coordinates": [ [ [ -93.238090909020926, 44.948375622154622 ], [ -93.234556593943651, 44.942756680418718 ], [ -93.23351160192567, 44.941372512171341 ], [ -93.228539575498516, 44.934126942683527 ], [ -93.247346728370886, 44.934114717155083 ], [ -93.247420776099815, 44.948373771531372 ], [ -93.262683242269318, 44.948357676468298 ], [ -93.262496773489346, 44.965812990559073 ], [ -93.258794100929364, 44.965812441712089 ], [ -93.253660189620859, 44.966184043345983 ], [ -93.250084805063594, 44.966299955133465 ], [ -93.243077941677029, 44.955593720254484 ], [ -93.241326996763462, 44.952248690363213 ], [ -93.238090909020926, 44.948375622154622 ] ] ] } },
{ "type": "Feature", "properties": { "sdorgid": 30001000000.0, "sdtype": "03", "sdnumber": "0001", "sdprefname": "Minneapolis Public School District", "elem_orgid": 30001224000.0, "elem_name": "Hmong Int'l", "elem_multi": "N", "midd_orgid": 30001318000.0, "midd_name": "Olson", "midd_multi": "N", "high_orgid": 30001354000.0, "high_name": "Camden", "high_multi": "N", "Shape_Leng": 5055.3819653399996, "Shape_Area": 1592589.0 }, "geometry": { "type": "Polygon", "coordinates": [ [ [ -93.294326071354561, 45.013148619244866 ], [ -93.294089528635709, 44.999169266754272 ], [ -93.29775627780576, 44.99916876390138 ], [ -93.299535071617697, 44.999650215017354 ], [ -93.301868842170663, 44.999500036912323 ], [ -93.304409801985628, 45.000141428695834 ], [ -93.304969687332544, 45.000445999534314 ], [ -93.305531444942972, 45.001101637269272 ], [ -93.305931384680107, 45.002342830250718 ], [ -93.308198098164368, 45.003867058324786 ], [ -93.308235676639711, 45.013237937410288 ], [ -93.294326071354561, 45.013148619244866 ] ] ] } },
{ "type": "Feature", "properties": { "sdorgid": 30001000000.0, "sdtype": "03", "sdnumber": "0001", "sdprefname": "Minneapolis Public School District", "elem_orgid": 30001249000.0, "elem_name": "Bryn Mawr", "elem_multi": "N", "midd_orgid": 30001309000.0, "midd_name": "Anwatin", "midd_multi": "N", "high_orgid": 30001375000.0, "high_name": "North", "high_multi": "N", "Shape_Leng": 15049.287774300001, "Shape_Area": 8679301.5 }, "geometry": { "type": "Polygon", "coordinates": [ [ [ -93.318166382888421, 44.966310567994206 ], [ -93.320879059875651, 44.966140940752751 ], [ -93.320967455443068, 44.959263171727862 ], [ -93.328803528178014, 44.959348898649218 ], [ -93.32871460750971, 44.977056051261201 ], [ -93.327548317523778, 44.977149422851845 ], [ -93.318530887201447, 44.977165934959757 ], [ -93.318395367137555, 44.991614452740819 ], [ -93.318425750373194, 45.001669528642523 ], [ -93.313324650410905, 45.001593623563252 ], [ -93.308198098164368, 45.003867058324786 ], [ -93.305931384680107, 45.002342830250718 ], [ -93.305531444942972, 45.001101637269272 ], [ -93.304969687332544, 45.000445999534314 ], [ -93.304409801985628, 45.000141428695834 ], [ -93.301868842170663, 44.999500036912323 ], [ -93.299535071617697, 44.999650215017354 ], [ -93.29775627780576, 44.99916876390138 ], [ -93.294089528635709, 44.999169266754272 ], [ -93.294140288625158, 44.984315924206506 ], [ -93.288140394713608, 44.984286215087607 ], [ -93.287984565108545, 44.975977794268559 ], [ -93.29066065345441, 44.975989016542897 ], [ -93.30054917117242, 44.970391190638189 ], [ -93.318166382888421, 44.966310567994206 ] ] ] } },
{ "type": "Feature", "properties": { "sdorgid": 30001000000.0, "sdtype": "03", "sdnumber": "0001", "sdprefname": "Minneapolis Public School District", "elem_orgid": 30001282000.0, "elem_name": "Lucy Laney", "elem_multi": "N", "midd_orgid": 30001318000.0, "midd_name": "Olson", "midd_multi": "N", "high_orgid": 30001354000.0, "high_name": "Camden", "high_multi": "N", "Shape_Leng": 8115.6622622100003, "Shape_Area": 2998818.0 }, "geometry": { "type": "Polygon", "coordinates": [ [ [ -93.298202451813353, 45.024021840507679 ], [ -93.298133449484055, 45.013174747299161 ], [ -93.308235676639711, 45.013237937410288 ], [ -93.308198098164368, 45.003867058324786 ], [ -93.313324650410905, 45.001593623563252 ], [ -93.318425750373194, 45.001669528642523 ], [ -93.318342801303558, 45.009600440175802 ], [ -93.319104940921875, 45.009733340943328 ], [ -93.319197557058118, 45.024118101191306 ], [ -93.298202451813353, 45.024021840507679 ] ] ] } },
{ "type": "Feature", "properties": { "sdorgid": 30001000000.0, "sdtype": "03", "sdnumber": "0001", "sdprefname": "Minneapolis Public School District", "elem_orgid": 30001288000.0, "elem_name": "Nellie Stone Johnson", "elem_multi": "N", "midd_orgid": 30001309000.0, "midd_name": "Anwatin", "midd_multi": "N", "high_orgid": 30001375000.0, "high_name": "North", "high_multi": "N", "Shape_Leng": 9179.7170059599994, "Shape_Area": 3463761.0 }, "geometry": { "type": "Polygon", "coordinates": [ [ [ -93.294326071354561, 45.013148619244866 ], [ -93.282789871196286, 45.01309676179374 ], [ -93.274896503104685, 45.013161051582834 ], [ -93.274430490966552, 45.005933646371048 ], [ -93.274562328469273, 45.00431298593967 ], [ -93.275425204989048, 44.999026782165537 ], [ -93.278623121107358, 44.999154050909759 ], [ -93.283000419880267, 44.999161287328512 ], [ -93.283360866807257, 44.995073512958506 ], [ -93.283597420813706, 44.994163729332904 ], [ -93.284415929643174, 44.992928426679676 ], [ -93.287749785392151, 44.989868411997143 ], [ -93.2884910829939, 44.988444232873434 ], [ -93.288598054625396, 44.987012651932183 ], [ -93.287848611075589, 44.984277949185568 ], [ -93.294140288625158, 44.984315924206506 ], [ -93.294089528635709, 44.999169266754272 ], [ -93.294326071354561, 45.013148619244866 ] ] ] } },
{ "type": "Feature", "properties": { "sdorgid": 30001000000.0, "sdtype": "03", "sdnumber": "0001", "sdprefname": "Minneapolis Public School District", "elem_orgid": 30001289000.0, "elem_name": "Whittier", "elem_multi": "N", "midd_orgid": 30001331000.0, "midd_name": "Andersen", "midd_multi": "N", "high_orgid": 30001362000.0, "high_name": "South", "high_multi": "N", "Shape_Leng": 8391.73268895, "Shape_Area": 4086276.5 }, "geometry": { "type": "Polygon", "coordinates": [ [ [ -93.269545093276747, 44.962690880402384 ], [ -93.269549367646817, 44.960899473158598 ], [ -93.262575787946048, 44.960906722232735 ], [ -93.262683242269318, 44.948357676468298 ], [ -93.29829165124049, 44.948360221698842 ], [ -93.298223368727008, 44.952303281139912 ], [ -93.296769632818297, 44.955565795096142 ], [ -93.291379567157151, 44.962700258412525 ], [ -93.269545093276747, 44.962690880402384 ] ] ] } },
{ "type": "Feature", "properties": { "sdorgid": 30001000000.0, "sdtype": "03", "sdnumber": "0001", "sdprefname": "Minneapolis Public School District", "elem_orgid": 30001293000.0, "elem_name": "Cityview", "elem_multi": "N", "midd_orgid": 30001318000.0, "midd_name": "Olson", "midd_multi": "N", "high_orgid": 30001354000.0, "high_name": "Camden", "high_multi": "N", "Shape_Leng": 5815.0623431100003, "Shape_Area": 2030570.0 }, "geometry": { "type": "Polygon", "coordinates": [ [ [ -93.274896503104685, 45.013161051582834 ], [ -93.282789871196286, 45.01309676179374 ], [ -93.298133449484055, 45.013174747299161 ], [ -93.298202451813353, 45.024021840507679 ], [ -93.278552904037525, 45.023927446703716 ], [ -93.276825566995214, 45.018440500076437 ], [ -93.275629632358459, 45.015193711781841 ], [ -93.275270700750269, 45.014447420757605 ], [ -93.274896503104685, 45.013161051582834 ] ] ] } }
]
}
