{
"type": "FeatureCollection",
"name": "SELECT",
"crs": { "type": "name", "properties": { "name": "urn:ogc:def:crs:OGC:1.3:CRS84" } },
"features": [
{ "type": "Feature", "properties": { "midd_name": "Andersen" }, "geometry": { "type": "Polygon", "coordinates": [ [ [ -93.247328499109983, 44.926931123507231 ], [ -93.262509382742707, 44.926942236415975 ], [ -93.262683242269318, 44.948357676468298 ], [ -93.29829165124049, 44.948360221698842 ], [ -93.298223368727008, 44.952303281139912 ], [ -93.296769632818297, 44.955565795096142 ], [ -93.291379567157151, 44.962700258412525 ], [ -93.269545093276747, 44.962690880402384 ], [ -93.269549367646817, 44.960899473158598 ], [ -93.262575787946048, 44.960906722232735 ], [ -93.262496773489346, 44.965812990559073 ], [ -93.258794100929364, 44.965812441712089 ], [ -93.253660189620859, 44.966184043345983 ], [ -93.24957759279755, 44.966301065763993 ], [ -93.243736822373336, 44.96446828620082 ], [ -93.236165884355088, 44.964232155471805 ], [ -93.228509758167178, 44.964877888776321 ], [ -93.22564874653871, 44.966071847040581 ], [ -93.218512404756495, 44.960117419141483 ], [ -93.207760505083243, 44.953088941795201 ], [ -93.205133000916561, 44.952175492864029 ], [ -93.204408734030508, 44.951708688668063 ], [ -93.203213168804425, 44.950603577677313 ], [ -93.202104739454171, 44.949030194788108 ], [ -93.201734307290053, 44.948229671185054 ], [ -93.200914679746759, 44.945845583082871 ], [ -93.200669343840858, 44.944558725928069 ], [ -93.200481428763723, 44.941561382072905 ], [ -93.200585997805092, 44.935205763272968 ], [ -93.200382089347954, 44.931245223868316 ], [ -93.199910882945588, 44.926934070277355 ], [ -93.202711763041009, 44.927055154683828 ], [ -93.208325316415724, 44.927045038464193 ], [ -93.208364444106209, 44.93434562540525 ], [ -93.207642066927733, 44.934346942899595 ], [ -93.207617489447088, 44.945086410174916 ], [ -93.231510775036782, 44.944968399041315 ], [ -93.232042350803098, 44.944769274390872 ], [ -93.235832305893553, 44.944752499649567 ], [ -93.228539575498516, 44.934126942683527 ], [ -93.247346728370886, 44.934114717155083 ], [ -93.247328499109983, 44.926931123507231 ] ] ] } },
{ "type": "Feature", "properties": { "midd_name": "Anthony" }, "geometry": { "type": "Polygon", "coordinates": [ [ [ -93.308833577922485, 44.890764025134338 ], [ -93.318939612495569, 44.890808265049053 ], [ -93.318829361820548, 44.905211920940339 ], [ -93.328988954138822, 44.905318135163625 ], [ -93.329112959448338, 44.922583741471968 ], [ -93.328997242434184, 44.937806526121207 ], [ -93.310479467532176, 44.937669336671256 ], [ -93.310301838021616, 44.932934749457637 ], [ -93.309422368399339, 44.932000923997869 ], [ -93.3092804033314, 44.931524200486322 ], [ -93.308137405504951, 44.931068186560339 ], [ -93.308070957890081, 44.930492235186243 ], [ -93.307546480258168, 44.929575440627126 ], [ -93.307522149262539, 44.917908845700879 ], [ -93.308751010369463, 44.917887525582728 ], [ -93.308660776940215, 44.908147530151858 ], [ -93.306861940211689, 44.908143376048955 ], [ -93.305820286506105, 44.907597043656544 ], [ -93.305357559791418, 44.908723541627445 ], [ -93.298440970129761, 44.908732825185467 ], [ -93.298444609854059, 44.909434977654705 ], [ -93.296390337389525, 44.909035234555681 ], [ -93.294715385334285, 44.908490442885309 ], [ -93.292103435202577, 44.908020043854627 ], [ -93.288177630722984, 44.908255070384669 ], [ -93.285401111243715, 44.907793935277816 ], [ -93.280172515269371, 44.905835427341074 ], [ -93.278692736409695, 44.906307156658713 ], [ -93.277901919550459, 44.907803429453828 ], [ -93.274855460013711, 44.909152112537065 ], [ -93.27489205913048, 44.90355272888516 ], [ -93.271165843686106, 44.903084527217288 ], [ -93.269977349774265, 44.903546449696769 ], [ -93.267369543418127, 44.903876660390388 ], [ -93.266654874270913, 44.902726064130405 ], [ -93.266370798817022, 44.901556455386896 ], [ -93.252666157422752, 44.901614606539674 ], [ -93.251743930007791, 44.902165770915261 ], [ -93.25103238060106, 44.901654218082307 ], [ -93.24914197364447, 44.900929190674418 ], [ -93.247482742063852, 44.900932802716035 ], [ -93.247367023164927, 44.897584274023743 ], [ -93.248240957607877, 44.897591377500433 ], [ -93.248242471633986, 44.897942456041875 ], [ -93.254613124791859, 44.897928425310631 ], [ -93.254659764094683, 44.897019109363384 ], [ -93.255381637301312, 44.897008495208233 ], [ -93.255425867463487, 44.895559058131767 ], [ -93.254703972548697, 44.895560670506811 ], [ -93.254736589828113, 44.89434531391597 ], [ -93.254078032830364, 44.894346781024929 ], [ -93.254072073961751, 44.892996478595883 ], [ -93.252843640443146, 44.892999205027948 ], [ -93.252846540129227, 44.89077567805672 ], [ -93.294369854815486, 44.890460143476531 ], [ -93.308833577922485, 44.890764025134338 ] ] ] } },
{ "type": "Feature", "properties": { "midd_name": "Anwatin" }, "geometry": { "type": "Polygon", "coordinates": [ [ [ -93.291379567157151, 44.962700258412525 ], [ -93.296769632818297, 44.955565795096142 ], [ -93.298223368727008, 44.952303281139912 ], [ -93.29829165124049, 44.948360221698842 ], [ -93.288099755054674, 44.948368389005246 ], [ -93.288211074219177, 44.937700709745712 ], [ -93.310479467532176, 44.937669336671256 ], [ -93.328997242434184, 44.937806526121207 ], [ -93.32871460750971, 44.977056051261201 ], [ -93.327548317523778, 44.977149422851845 ], [ -93.318530887201447, 44.977165934959757 ], [ -93.318425750373194, 45.001669528642523 ], [ -93.313324650410905, 45.001593623563252 ], [ -93.308198098164368, 45.003867058324786 ], [ -93.305931384680107, 45.002342830250718 ], [ -93.305531444942972, 45.001101637269272 ], [ -93.304969687332544, 45.000445999534314 ], [ -93.304409801985628, 45.000141428695834 ], [ -93.301868842170663, 44.999500036912323 ], [ -93.299535071617697, 44.999650215017354 ], [ -93.29775627780576, 44.99916876390138 ], [ -93.294089528635709, 44.999169266754272 ], [ -93.294326071354561, 45.013148619244866 ], [ -93.274896503104685, 45.013161051582834 ], [ -93.274430490966552, 45.005933646371048 ], [ -93.275425204989048, 44.999026782165537 ], [ -93.283000419880267, 44.999161287328512 ], [ -93.283360866807257, 44.995073512958506 ], [ -93.283597420813706, 44.994163729332904 ], [ -93.284415929643174, 44.992928426679676 ], [ -93.287749785392151, 44.989868411997143 ], [ -93.2884910829939, 44.988444232873434 ], [ -93.288598054625396, 44.987012651932183 ], [ -93.287848611075589, 44.984277949185568 ], [ -93.288140394713608, 44.984286215087607 ], [ -93.287984565108545, 44.975977794268559 ], [ -93.281173731914194, 44.975922755427007 ], [ -93.280463910401963, 44.976005519135086 ], [ -93.278641216407294, 44.976748143930422 ], [ -93.277530518409179, 44.975238517942202 ], [ -93.269181278110409, 44.971639714112122 ], [ -93.269644917614087, 44.967749763246736 ], [ -93.269545093276747, 44.962690880402384 ], [ -93.291379567157151, 44.962700258412525 ] ] ] } },
{ "type": "Feature", "properties": { "midd_name": "Justice Page" }, "geometry": { "type": "Polygon", "coordinates": [ [ [ -93.278692736409695, 44.906307156658713 ], [ -93.280172515269371, 44.905835427341074 ], [ -93.285401111243715, 44.907793935277816 ], [ -93.288177630722984, 44.908255070384669 ], [ -93.292103435202577, 44.908020043854627 ], [ -93.294715385334285, 44.908490442885309 ], [ -93.296390337389525, 44.909035234555681 ], [ -93.298444609854059, 44.909434977654705 ], [ -93.298440970129761, 44.908732825185467 ], [ -93.305357559791418, 44.908723541627445 ], [ -93.305820286506105, 44.907597043656544 ], [ -93.306861940211689, 44.908143376048955 ], [ -93.308660776940215, 44.908147530151858 ], [ -93.308751010369463, 44.917887525582728 ], [ -93.307522149262539, 44.917908845700879 ], [ -93.307546480258168, 44.929575440627126 ], [ -93.308070957890081, 44.930492235186243 ], [ -93.308137405504951, 44.931068186560339 ], [ -93.3092804033314, 44.931524200486322 ], [ -93.309422368399339, 44.932000923997869 ], [ -93.310301838021616, 44.932934749457637 ], [ -93.310479467532176, 44.937669336671256 ], [ -93.288211074219177, 44.937700709745712 ], [ -93.288099755054674, 44.948368389005246 ], [ -93.262683242269318, 44.948357676468298 ], [ -93.262509382742707, 44.926942236415975 ], [ -93.252346554390485, 44.926938142229375 ], [ -93.252378807011667, 44.914074123895666 ], [ -93.249279733254582, 44.91518818781703 ], [ -93.247304061391986, 44.915354525525977 ], [ -93.247482742063852, 44.900932802716035 ], [ -93.24914197364447, 44.900929190674418 ], [ -93.25103238060106, 44.901654218082307 ], [ -93.251743930007791, 44.902165770915261 ], [ -93.252666157422752, 44.901614606539674 ], [ -93.266370798817022, 44.901556455386896 ], [ -93.266654874270913, 44.902726064130405 ], [ -93.267369543418127, 44.903876660390388 ], [ -93.269977349774265, 44.903546449696769 ], [ -93.271165843686106, 44.903084527217288 ], [ -93.27489205913048, 44.90355272888516 ], [ -93.274855460013711, 44.909152112537065 ], [ -93.277901919550459, 44.907803429453828 ], [ -93.278692736409695, 44.906307156658713 ] ] ] } },
{ "type": "Feature", "properties": { "midd_name": "Northeast" }, "geometry": { "type": "Polygon", "coordinates": [ [ [ -93.207557327539277, 44.991581774151832 ], [ -93.207760505083243, 44.953088941795201 ], [ -93.218512404756495, 44.960117419141483 ], [ -93.22564874653871, 44.966071847040581 ], [ -93.228509758167178, 44.964877888776321 ], [ -93.236165884355088, 44.964232155471805 ], [ -93.243736822373336, 44.96446828620082 ], [ -93.24957759279755, 44.966301065763993 ], [ -93.253660189620859, 44.966184043345983 ], [ -93.258794100929364, 44.965812441712089 ], [ -93.262496773489346, 44.965812990559073 ], [ -93.262575787946048, 44.960906722232735 ], [ -93.269549367646817, 44.960899473158598 ], [ -93.269644917614087, 44.967749763246736 ], [ -93.269181278110409, 44.971639714112122 ], [ -93.277530518409179, 44.975238517942202 ], [ -93.278641216407294, 44.976748143930422 ], [ -93.280463910401963, 44.976005519135086 ], [ -93.281173731914194, 44.975922755427007 ], [ -93.287984565108545, 44.975977794268559 ], [ -93.288140394713608, 44.984286215087607 ], [ -93.287848611075589, 44.984277949185568 ], [ -93.288598054625396, 44.987012651932183 ], [ -93.2884910829939, 44.988444232873434 ], [ -93.287749785392151, 44.989868411997143 ], [ -93.284415929643174, 44.992928426679676 ], [ -93.283597420813706, 44.994163729332904 ], [ -93.283360866807257, 44.995073512958506 ], [ -93.283000419880267, 44.999161287328512 ], [ -93.275425204989048, 44.999026782165537 ], [ -93.274430490966552, 45.005933646371048 ], [ -93.274896503104685, 45.013161051582834 ], [ -93.275270700750269, 45.014447420757605 ], [ -93.276825566995214, 45.018440500076437 ], [ -93.278552904037525, 45.023927446703716 ], [ -93.280000078097501, 45.02656145606943 ], [ -93.282507382280997, 45.030489096448001 ], [ -93.283315841670642, 45.032251458744724 ], [ -93.283503261077527, 45.034213399712819 ], [ -93.283455680246604, 45.034861651890296 ], [ -93.283191873577906, 45.035429423821782 ], [ -93.22691260839342, 45.035636208907292 ], [ -93.226848960529281, 45.019531987088342 ], [ -93.226580047207818, 45.018929395215721 ], [ -93.226595567671467, 45.013213164337039 ], [ -93.218181850801244, 45.01328357782198 ], [ -93.217890886857631, 45.013527185085216 ], [ -93.217811651950214, 45.006019752196444 ], [ -93.207635315854972, 45.006128748552129 ], [ -93.207557327539277, 44.991581774151832 ] ] ] } },
{ "type": "Feature", "properties": { "midd_name": "Olson" }, "geometry": { "type": "Polygon", "coordinates": [ [ [ -93.294089528635709, 44.999169266754272 ], [ -93.29775627780576, 44.99916876390138 ], [ -93.299535071617697, 44.999650215017354 ], [ -93.301868842170663, 44.999500036912323 ], [ -93.304409801985628, 45.000141428695834 ], [ -93.304969687332544, 45.000445999534314 ], [ -93.305531444942972, 45.001101637269272 ], [ -93.305931384680107, 45.002342830250718 ], [ -93.308198098164368, 45.003867058324786 ], [ -93.313324650410905, 45.001593623563252 ], [ -93.318425750373194, 45.001669528642523 ], [ -93.318342801303558, 45.009600440175802 ], [ -93.319104940921875, 45.009733340943328 ], [ -93.31931245087921, 45.040213115031605 ], [ -93.323134732293866, 45.040310382619523 ], [ -93.32319991530494, 45.042866723627753 ], [ -93.319360508493375, 45.04200434899122 ], [ -93.319500958878436, 45.051266851900074 ], [ -93.28196153164572, 45.051167698909076 ], [ -93.281109896946774, 45.048415236929564 ], [ -93.280711811826919, 45.044914499829936 ], [ -93.280929440831144, 45.042681506470061 ], [ -93.283455680246604, 45.034861651890296 ], [ -93.283499348924892, 45.033421245518795 ], [ -93.283315841670642, 45.032251458744724 ], [ -93.282507382280997, 45.030489096448001 ], [ -93.280000078097501, 45.02656145606943 ], [ -93.278552904037525, 45.023927446703716 ], [ -93.276825566995214, 45.018440500076437 ], [ -93.274896503104685, 45.013161051582834 ], [ -93.294326071354561, 45.013148619244866 ], [ -93.294089528635709, 44.999169266754272 ] ] ] } },
{ "type": "Feature", "properties": { "midd_name": "Sanford" }, "geometry": { "type": "Polygon", "coordinates": [ [ [ -93.199253511014646, 44.905438283524752 ], [ -93.207588246512344, 44.905396409508313 ], [ -93.207682267546318, 44.896349135829581 ], [ -93.212900212385321, 44.896339513787005 ], [ -93.212911578774964, 44.895988410680054 ], [ -93.210885205099459, 44.895992175892012 ], [ -93.210913700784758, 44.893399517843115 ], [ -93.216118712978172, 44.893389772599505 ], [ -93.216968541494495, 44.893739241006401 ], [ -93.216959066157656, 44.894585456711823 ], [ -93.217275679209635, 44.894584853941161 ], [ -93.217266649974619, 44.89554809600898 ], [ -93.217064014232562, 44.895548481872915 ], [ -93.217065677498709, 44.895989581628292 ], [ -93.219054055772702, 44.895985779738673 ], [ -93.219062849612669, 44.894968525438642 ], [ -93.22037996842019, 44.894965987865824 ], [ -93.22248643245814, 44.896033147984681 ], [ -93.222502333219111, 44.896870312221715 ], [ -93.221349816319758, 44.896872554910836 ], [ -93.221096965371757, 44.896990072662682 ], [ -93.21976713527603, 44.896992642988764 ], [ -93.219526053039388, 44.896876080017151 ], [ -93.219044782117862, 44.896877005396732 ], [ -93.219035953540782, 44.897885257323921 ], [ -93.231776276903702, 44.897635025236454 ], [ -93.231758900068542, 44.896464787687314 ], [ -93.232404811108708, 44.896463473364896 ], [ -93.23240328470186, 44.896085388267906 ], [ -93.231795372421786, 44.896086625363132 ], [ -93.231805572327872, 44.895474461769723 ], [ -93.232413478144352, 44.895473224631779 ], [ -93.232424834422858, 44.895149125828979 ], [ -93.234957760641223, 44.895143936031452 ], [ -93.234948990427668, 44.896098176835231 ], [ -93.237494585632305, 44.896083902584351 ], [ -93.237486637297039, 44.897227185802507 ], [ -93.238121939650682, 44.897720976651854 ], [ -93.238729868910326, 44.897719705848353 ], [ -93.238731138273408, 44.898025774519077 ], [ -93.239364401242284, 44.898024447311002 ], [ -93.239373697377573, 44.897214238955428 ], [ -93.240639038778383, 44.896932511321111 ], [ -93.240630851785042, 44.898003778323961 ], [ -93.242517974317451, 44.897999781494853 ], [ -93.242529084512739, 44.897630671849832 ], [ -93.243162342958684, 44.897629323590365 ], [ -93.243173867271111, 44.897359236062911 ], [ -93.243781754361592, 44.897348936356984 ], [ -93.243780420057149, 44.897033865739438 ], [ -93.244438963726395, 44.897023454255866 ], [ -93.244439728242384, 44.897203494602877 ], [ -93.245123642190379, 44.897202026898633 ], [ -93.245122798870767, 44.897003982526122 ], [ -93.247351843706042, 44.896999170501125 ], [ -93.247482742063852, 44.900932802716035 ], [ -93.247304061391986, 44.915354525525977 ], [ -93.249279733254582, 44.91518818781703 ], [ -93.252378807011667, 44.914074123895666 ], [ -93.252346554390485, 44.926938142229375 ], [ -93.247328499109983, 44.926931123507231 ], [ -93.247346728370886, 44.934114717155083 ], [ -93.228539575498516, 44.934126942683527 ], [ -93.235832305893553, 44.944752499649567 ], [ -93.232042350803098, 44.944769274390872 ], [ -93.231510775036782, 44.944968399041315 ], [ -93.207617489447088, 44.945086410174916 ], [ -93.207642066927733, 44.934346942899595 ], [ -93.208364444106209, 44.93434562540525 ], [ -93.208325316415724, 44.927045038464193 ], [ -93.202711763041009, 44.927055154683828 ], [ -93.199910882945588, 44.926934070277355 ], [ -93.199945110464739, 44.925844762050211 ], [ -93.20101040382157, 44.918848290347768 ], [ -93.200675770058027, 44.910089865317381 ], [ -93.200471420538477, 44.909613114631902 ], [ -93.199352533335528, 44.908426801731451 ], [ -93.193717700098347, 44.905339797288512 ], [ -93.199253511014646, 44.905438283524752 ] ] ] } }
]
}
